[{"OBJECT_NAME":"STARLINK-30352","OBJECT_ID":"2023-131E","EPOCH":"2026-03-09T07:50:02.268960","MEAN_MOTION":15.02534219,"ECCENTRICITY":0.00014572,"INCLINATION":43.0043,"RA_OF_ASC_NODE":173.4098,"ARG_OF_PERICENTER":271.2649,"MEAN_ANOMALY":88.8026,"EPHEMERIS_TYPE":0,"CLASSIFICATION_TYPE":"U","NORAD_CAT_ID":57736,"ELEMENT_SET_NO":999,"REV_AT_EPOCH":13987,"BSTAR":4.0658673e-5,"MEAN_MOTION_DOT":3.46e-6,"MEAN_MOTION_DDOT":0},{"OBJECT_NAME":"SL-8 DEB","OBJECT_ID":"1977-119E","EPOCH":"2026-03-08T21:50:26.826144","MEAN_MOTION":15.02521055,"ECCENTRICITY":0.00060399,"INCLINATION":74.0225,"RA_OF_ASC_NODE":39.6743,"ARG_OF_PERICENTER":252.2066,"MEAN_ANOMALY":138.7099,"EPHEMERIS_TYPE":0,"CLASSIFICATION_TYPE":"U","NORAD_CAT_ID":18512,"ELEMENT_SET_NO":999,"REV_AT_EPOCH":19339,"BSTAR":0.0013899008,"MEAN_MOTION_DOT":0.00018486,"MEAN_MOTION_DDOT":0}]
